SKYKRAFT-1A             
1 55054U 23001AX  26068.71064616  .00008177  00000+0  30069-3 0  9991
2 55054  97.3349 127.6290 0011277 121.5092 238.7251 15.28083228176529
STARLINK-30430          
1 57849U 23141K   26068.86262549 -.00000755  00000+0 -13382-4 0  9997
2 57849  53.1600 283.3817 0000721 100.9132 259.1950 15.30184601140351
